,index,Company Name,Executive Ethnicity,City,Address,State,ZIP Code
0,17,235 Media Group,Western Europe,Dorchester,235 Minot St # 3,MA,2124
1,29,42nd Estate LLC,Eastern European,Dorchester,47 Roseclair St,MA,2125
2,68,A & G Systems,Hispanic,Dorchester,10 Annabel St,MA,2125
3,69,A & J Fields Promotions,Western Europe,Mattapan,11 Richmere Rd,MA,2126
4,99,AAA Birthday Magicians Svc,Western Europe,Mattapan,11 Richmere Rd,MA,2126
5,108,ABC Auto Glass Repair,Hispanic,Dorchester,1121 Dorchester Ave,MA,2125
6,157,ADCI International,Western Europe,East Boston,4 Eagle Sq,MA,2128
7,162,ADT Home Security,Western Europe,Dorchester,13 Winter St,MA,2122
8,165,Advanced Physical Therapy Ctr,Eastern European,Mattapan,1651 Blue Hill Ave # 2,MA,2126
9,172,Aeronatutics Commission,Western Europe,East Boston,1 Harborside Dr # 205n,MA,2128
10,195,"Ahern, Mike",Western Europe,Dorchester,,MA,2125
11,198,"Ahn, Sam Dmd",Far Eastern,Dorchester,653 Columbia Rd,MA,2125
12,203,Air General Inc,Western Europe,East Boston,122 Harborside Dr # 4,MA,2128
13,206,Air Tran Airways,Western Europe,East Boston,300 Terminal C # 6,MA,2128
14,236,Alix Foods Inc,African American,Roxbury,137 School St,MA,2119
15,247,All Star Barber Shop,Hispanic,Dorchester,1726 Dorchester Ave,MA,2124
16,251,Alliance For Animals,Female,Dorchester,39 Lawley St,MA,2122
17,254,Allied Wrecking,,East Boston,53 Breed St # 401,MA,2128
18,255,Allstate Insurance,,Dorchester,1377 Dorchester Ave,MA,2122
19,256,Allstate Insurance,Male,Dorchester,571 Dudley St # A,MA,2125
20,269,"Alt, Elizabeth N MD",Female,Dorchester,632 Blue Hill Ave,MA,2121
21,274,Alvarado's Family Market,Female,Dorchester,1512 Dorchester Ave,MA,2122
22,287,Ambro Academy,,Roxbury,49 Alpine St,MA,2119
23,289,American Airlines Federal Cu,Male,East Boston,1 Harborside Dr,MA,2128
24,310,"Anderson, Jennifer G Np",Female,Dorchester,398 Neponset Ave,MA,2122
25,317,Aney Bangla Grocery,,Dorchester,542 Washington St,MA,2124
26,321,Angel's Car Svc,,Roxbury,246 Warren St # 409,MA,2119
27,325,"Angelos, Dwyla J",,Roxbury,55 Dimock St,MA,2119
28,330,Anna Manning,Female,Dorchester,35 Harbor Point Blvd,MA,2125
29,331,Annans Family Daycare,,Dorchester,59 Barry St,MA,2125
30,332,Anointed Church,,Dorchester,1281 Dorchester Ave,MA,2122
31,343,Application Services,,Dorchester,21 South Munroe Ter,MA,2122
32,346,Araujo Computers,Male,Roxbury,124 Shirley St # 2,MA,2119
33,358,Arlean's Family Day Care,Female,Dorchester,39 Dacia St,MA,2125
34,361,"Armstrong, Franklin",Male,Roxbury,,MA,2119
35,384,Ashley Stewart,,Mattapan,1621 Blue Hill Ave,MA,2126
36,386,Ashley's Breakfast Shop,Female,Dorchester,260 Bowdoin St,MA,2122
37,391,Ashmont Realty II,Male,Dorchester,235 Bowdoin St,MA,2122
38,392,Ashmont Tire Svc,,Dorchester,1961 Dorchester Ave,MA,2124
39,393,"Ashmont, Tod",Male,Dorchester,,MA,2122
40,397,Asian Too Express,Female,East Boston,108 Terminal B,MA,2128
41,398,Asian Wholesale,,Dorchester,1392 Dorchester Ave,MA,2122
42,400,Associated Early Care & Edctn,,Roxbury,11 Mount Pleasant Ave,MA,2119
43,405,At The Cross Publishing,,Roxbury,20 Copeland St,MA,2119
44,413,Atlantic Shipping Co Inc,Male,Dorchester,65 E Cottage St,MA,2125
45,420,Au Bon Pain,Male,Dorchester,240 Mount Vernon St,MA,2125
46,421,Au Bon Pain,Male,East Boston,1 Harborside Dr # 31,MA,2128
47,423,Au Bon Pain,,East Boston,200 Logan Airport,MA,2128
48,434,Avenue,,Dorchester,510 Geneva Ave,MA,2122
49,436,Avenue Auto Glass,Female,Dorchester,381 Geneva Ave,MA,2122
50,469,Bank Of America,Male,Dorchester,150 Mount Vernon St,MA,2125
51,470,Bank Of America,,Dorchester,555 Columbia Rd,MA,2125
52,471,Bank Of America,,Roxbury,3060 Washington St,MA,2119
53,478,"Barclay-Wint, Novelet",Female,Roxbury,520 Dudley St,MA,2119
54,479,Barletta Heavy Div,,Dorchester,82 Crescent Ave,MA,2125
55,496,Bay Cove Early Intervention,Female,Dorchester,105 Victory Rd,MA,2122
56,544,Bennington Street Cemetery,,East Boston,Bennington St,MA,2128
57,545,"Benoit, Adzele",Female,Roxbury,520 Dudley St,MA,2119
58,546,Bentley Advisors,,Dorchester,404 Neponset Ave,MA,2122
59,555,"Bernier, Berthlyn M",,Roxbury,184 Dudley St,MA,2119
60,562,Best Liquors,Male,Dorchester,1088 Dorchester Ave,MA,2125
61,584,Bill Plumber,Male,Mattapan,105 River St,MA,2126
62,585,Bill The Plumber,Male,Mattapan,105 River St,MA,2126
63,598,Blackriver Constables,Male,Dorchester,90 Freeport St,MA,2122
64,603,BLOCKBUSTER Video,Male,Dorchester,711 William T Morrissey Blvd,MA,2122
65,604,Blockbuster Video,Female,Dorchester,719 William T Morrissey Blvd,MA,2122
66,605,BLOCKBUSTER Video,Male,East Boston,184 Border St,MA,2128
67,628,"Bogard, Betty M Np",Female,Mattapan,1575 Blue Hill Ave,MA,2126
68,637,Boost Mobile,Male,Dorchester,24 Hancock St,MA,2125
69,638,Boost Mobile,Male,Mattapan,1622 Blue Hill Ave,MA,2126
70,641,Borders Express,Male,East Boston,500 Terminal E,MA,2128
71,642,Borinquen Bakery & Cafe,,Dorchester,112 Stoughton St,MA,2125
72,666,Boston Checkcashers Inc,,Dorchester,214 Bowdoin St,MA,2122
73,689,Boston Disposal Svc Co,,Dorchester,84 Tenean St,MA,2122
74,697,Boston Food Concepts Lic,,East Boston,100 Terminal A,MA,2128
75,709,Boston Health Net,Female,East Boston,10 Gove St,MA,2128
76,710,Boston Health Net,Male,East Boston,10 Gove St,MA,2128
77,711,Boston Health Net,Female,East Boston,10 Gove St,MA,2128
78,712,Boston Health Net,Male,East Boston,10 Gove St,MA,2128
79,713,Boston Health Net,Female,East Boston,10 Gove St,MA,2128
80,714,Boston Health Net,Female,East Boston,10 Gove St,MA,2128
81,715,Boston Health Net,Female,East Boston,10 Gove St,MA,2128
82,716,Boston Health Net,Female,East Boston,10 Gove St,MA,2128
83,717,Boston Health Net,Female,East Boston,10 Gove St,MA,2128
84,718,Boston Health Net,Male,East Boston,10 Gove St,MA,2128
85,719,Boston Health Net,Female,East Boston,10 Gove St,MA,2128
86,720,Boston Health Net,Male,East Boston,10 Gove St,MA,2128
87,721,Boston Health Net,Female,East Boston,10 Gove St,MA,2128
88,722,Boston Health Net,Female,East Boston,10 Gove St,MA,2128
89,723,Boston Health Net,Male,East Boston,10 Gove St,MA,2128
90,724,Boston Health Net,Male,East Boston,10 Gove St,MA,2128
91,725,Boston Health Net,Female,East Boston,10 Gove St,MA,2128
92,726,Boston Health Net,Female,East Boston,10 Gove St,MA,2128
93,727,Boston Health Net,Male,East Boston,10 Gove St,MA,2128
94,728,Boston Health Net,Female,East Boston,10 Gove St,MA,2128
95,729,Boston Health Net,Male,East Boston,10 Gove St,MA,2128
96,730,Boston Health Net,Male,East Boston,10 Gove St,MA,2128
97,731,Boston Health Net,Female,East Boston,10 Gove St,MA,2128
98,732,Boston Health Net,Female,East Boston,10 Gove St,MA,2128
99,733,Boston Health Net,Male,East Boston,10 Gove St,MA,2128
100,734,Boston Health Net,Female,East Boston,10 Gove St,MA,2128
101,735,Boston Health Net,Male,East Boston,10 Gove St,MA,2128
102,736,Boston Health Net,Female,East Boston,10 Gove St,MA,2128
103,737,Boston Health Net,Male,East Boston,10 Gove St,MA,2128
104,739,Boston Health Net,Female,East Boston,10 Gove St,MA,2128
105,740,Boston Health Net,,East Boston,10 Gove St,MA,2128
106,741,Boston Health Net,Female,East Boston,10 Gove St,MA,2128
107,742,Boston Health Net,Male,East Boston,10 Gove St,MA,2128
108,743,Boston Health Net,Female,East Boston,10 Gove St,MA,2128
109,744,Boston Health Net,Female,East Boston,10 Gove St,MA,2128
110,745,Boston Health Net,,East Boston,10 Gove St,MA,2128
111,746,Boston Health Net,Female,East Boston,10 Gove St,MA,2128
112,747,Boston Health Net,Female,East Boston,10 Gove St,MA,2128
113,748,Boston Health Net,Female,East Boston,10 Gove St,MA,2128
114,749,Boston Health Net,Female,East Boston,10 Gove St,MA,2128
115,750,Boston Health Net,Female,East Boston,10 Gove St,MA,2128
116,751,Boston Health Net,,East Boston,10 Gove St,MA,2128
117,752,Boston Health Net,Male,East Boston,10 Gove St,MA,2128
118,753,Boston Health Net,Female,East Boston,10 Gove St,MA,2128
119,754,Boston Health Net,Male,East Boston,10 Gove St,MA,2128
120,755,Boston Health Net,Male,East Boston,10 Gove St,MA,2128
121,756,Boston Health Net,Female,East Boston,10 Gove St,MA,2128
122,757,Boston Health Net,Female,East Boston,10 Gove St,MA,2128
123,759,Boston Health Net,Female,East Boston,10 Gove St,MA,2128
124,797,Boston Plasma TV,,Mattapan,3 Mulvey St,MA,2126
125,811,Boston Public Schools,,Roxbury,205 Roxbury St,MA,2119
126,833,Boston Visiting Nurse Assn,Male,Dorchester,150 Mount Vernon St,MA,2125
127,835,Boston Windshield Replacement,Female,Dorchester,121 Boston St,MA,2125
128,844,Botanica Las Tres Divinas,,Dorchester,727 Dudley St,MA,2125
129,851,Boutique Yasser,,Dorchester,11 Stoughton St,MA,2125
130,852,Bowdoin Cable Co,,Dorchester,415 Bowdoin St,MA,2122
131,854,Bowdoin Health Ctr,Male,Dorchester,230 Bowdoin St,MA,2122
132,855,Bowdoin Health Ctr,Male,Dorchester,230 Bowdoin St,MA,2122
133,856,Bowdoin Health Ctr,Male,Dorchester,230 Bowdoin St,MA,2122
134,860,Bowdoin Health Ctr,Male,Dorchester,230 Bowdoin St,MA,2122
135,861,Bowdoin Health Ctr,Male,Dorchester,230 Bowdoin St,MA,2122
136,862,Bowdoin Health Ctr,Male,Dorchester,230 Bowdoin St,MA,2122
137,864,Bowdoin Sewer & Drain,,Dorchester,314 Bowdoin St,MA,2122
138,872,"Boykin, Wynnette R",Female,Mattapan,1613 Blue Hill Ave # 302,MA,2126
139,886,"Branson, Edward H Np",Male,Dorchester,398 Neponset Ave,MA,2122
140,897,"Briceno, Elizabeth N DDS",Female,East Boston,38 Central Sq,MA,2128
141,905,Bright Beginnings Nursery,,Dorchester,,MA,2122
142,913,Brookstone,Female,East Boston,100 Terminal A # 19,MA,2128
143,924,Brothers Super Liquors,,Dorchester,213 Bowdoin St,MA,2122
144,932,Bruce C Bolling Bldg,,Roxbury,2300 Washington St # 6,MA,2119
145,938,BTU Lounge,Female,Dorchester,180 Mount Vernon St,MA,2125
146,943,Budget Truck Rental,,Roxbury,22 Centre St,MA,2119
147,946,"Bugayong, Marites G DDS",Female,East Boston,38 Central Sq,MA,2128
148,953,Bulthaup Corp Boston,Female,Dorchester,47 Harvest St # 1,MA,2125
149,958,Burger King,,Dorchester,960 William T Morrissey Blvd,MA,2122
150,959,Burger King,Female,East Boston,1 Harborside Dr # E,MA,2128
151,960,Burger King,Male,East Boston,18 Terminal C,MA,2128
152,999,Cafe 1221,,Dorchester,1221 Dorchester Ave,MA,2125
153,1000,Cafe Anastasis,,Dorchester,299 Hancock St,MA,2125
154,1001,Cafe Meridian,Male,East Boston,271 Meridian St,MA,2128
155,1035,Cape Verdian African Amer Pzz,,Dorchester,554 Dudley St,MA,2125
156,1038,Capeverdean Taste,Male,Dorchester,481 Geneva Ave,MA,2122
157,1042,"Capone, Ruth M Np",Female,East Boston,10 Gove St,MA,2128
158,1070,Carpenty Services,,Roxbury,124 Calumet St,MA,2120
159,1082,Casa Myrna Vazquez,,Dorchester,47 Ocean St,MA,2124
160,1085,Casa Nueva Vida Inc,,Dorchester,26 Josephine St,MA,2122
161,1099,Catch Roxbury Weston Prgm Inc,Female,Roxbury,81 Walnut Ave,MA,2119
162,1108,CBE Technologies Inc,Male,Dorchester,50 Redfield St,MA,2122
163,1113,CEECO,,Dorchester,95 Freeport St,MA,2122
164,1118,Centaurian Dental,Female,Dorchester,653 Columbia Rd # 1,MA,2125
165,1127,Central Square Smiles,Female,East Boston,38 Central Sq,MA,2128
166,1129,Central Square Smiles,Female,East Boston,38 Central Sq,MA,2128
167,1133,Century 21 Gold Medal Realty,,Dorchester,906 Dorchester Ave,MA,2125
168,1135,Century International,Male,East Boston,296 Bennington St,MA,2128
169,1142,"Chadwick-Rivin, Phoebe H Np",Female,East Boston,10 Gove St,MA,2128
170,1171,"Chelian, Charishma DDS",Female,East Boston,55 Meridian St,MA,2128
171,1172,Chelsea Mgh Healthcare Ctr,,Roxbury,416 Warren St,MA,2119
172,1173,"Chen, Shao-Chiu DDS",,East Boston,38 Central Sq,MA,2128
173,1174,"Cheney, Wendy Ruth DDS",Female,Roxbury,801 Albany St,MA,2119
174,1186,Children's Hospital Inc,,Dorchester,21 South Munroe Ter,MA,2122
175,1187,Children's Services Of Roxbury,Female,Roxbury,520 Dudley St,MA,2119
176,1189,Childrens Services Of Roxbury,Female,Roxbury,520 Dudley St,MA,2119
177,1200,"Chorres, Romina",Female,Roxbury,245 Eustis St,MA,2119
178,1210,Christian Beginning Daycare,Female,Dorchester,154 Quincy St # 2,MA,2121
179,1228,Circuit City,,Dorchester,8 Allstate Rd,MA,2125
180,1231,Citizens Bank,,Roxbury,125 Magazine St,MA,2119
181,1242,City On A Hill Charter School,,Dorchester,18 Samoset St,MA,2124
182,1252,"Clapp, Meaghan A Pa",Female,East Boston,10 Gove St,MA,2128
183,1258,Classic Hair Design By Rose,,Dorchester,612 Blue Hill Ave,MA,2121
184,1262,Claudette's Hair Studio,Female,Roxbury,330 Martin Luther King Blvd,MA,2119
185,1271,Club De Nutricion,,Roxbury,3116 Washington St,MA,2119
186,1279,Codman Cycle Co,,Dorchester,353 Adams St,MA,2122
187,1280,Codman Lock Co,Male,Dorchester,357 Adams St,MA,2122
188,1300,Cold Zone Of Boston,,East Boston,141 Border St,MA,2128
189,1301,"Coletti, Ellen E Np",Female,Roxbury,131 Walnut Ave,MA,2119
190,1320,Comcast Cable,,Roxbury,26 Waverly St,MA,2119
191,1330,Commonwealth Care Alliance,Male,Roxbury,10 Northampton St,MA,2119
192,1349,Comp-Net,Male,Dorchester,1120 Dorchester Ave,MA,2125
193,1353,Comphugg Technology Ctr,Male,Mattapan,816 Morton St,MA,2126
194,1359,Concepts In Security,Male,Dorchester,6 Fayston St,MA,2121
195,1373,Continental Airlines Inc,,East Boston,62 Harborside Dr,MA,2128
196,1374,Continental Airlines Inc,,East Boston,Terminal A,MA,2128
197,1382,"Cook, Katherine D Np",Female,Dorchester,230 Bowdoin St,MA,2122
198,1390,Corner Health Ctr,Male,Dorchester,500 Columbia Rd,MA,2125
199,1391,Corner Health Ctr,Female,Dorchester,500 Columbia Rd,MA,2125
200,1392,Corner Health Ctr,Female,Dorchester,500 Columbia Rd,MA,2125
201,1393,Corner Health Ctr,Female,Dorchester,500 Columbia Rd,MA,2125
202,1394,Corner Health Ctr,Female,Dorchester,500 Columbia Rd,MA,2125
203,1395,Corner Health Ctr,Male,Dorchester,500 Columbia Rd,MA,2125
204,1397,Corner Shoppe,Male,Dorchester,425 Bowdoin St,MA,2122
205,1399,Cornerstone Corp,,Dorchester,713 Dudley St,MA,2125
206,1405,Cosi,,East Boston,500 Terminal E,MA,2128
207,1414,Courtyard,,Dorchester,33 W Howell St,MA,2125
208,1417,"Cox, Ruby L Np",Female,Dorchester,500 Columbia Rd,MA,2125
209,1426,Cricket Wireless Auth Retailer,,Dorchester,444 Blue Hill Ave,MA,2121
210,1427,Cricket Wireless Auth Retailer,,Dorchester,485 Washington St,MA,2124
211,1448,"Cuffy, Carmela",Female,Dorchester,434 Warren St,MA,2121
212,1451,"Cummins, Michelle O Dmd",Female,Dorchester,1100 Washington St # 208,MA,2124
213,1452,"Cuomo, Hailey",Female,Roxbury,55 Dimock St,MA,2119
214,1453,"Cuperman, Ronen",Male,Roxbury,11 Roxbury St,MA,2119
215,1456,Curves,Female,Dorchester,79 Freeport St,MA,2122
216,1465,"Cyr, Brenna Lynn",Female,Roxbury,1290 Tremont St,MA,2120
217,1466,D & D Convenience Store,Male,Dorchester,1002 Dorchester Ave,MA,2125
218,1472,D & S Refrigeration Sales,Male,Roxbury,1127 Harrison Ave,MA,2119
219,1512,Dane Shulman Assoc,Male,Mattapan,1596 Blue Hill Ave,MA,2126
220,1524,"David, Amy M",Female,Dorchester,105 Victory Rd,MA,2122
221,1527,Davis Vision Ctr,,Dorchester,750 Dorchester Ave,MA,2125
222,1543,Deeper Life Bible Church,Male,Dorchester,95 Freeport St,MA,2122
223,1562,Dental Dreams,Male,Roxbury,3033 Washington St,MA,2119
224,1563,Dental Dreams,Male,Roxbury,3033 Washington St,MA,2119
225,1564,Dental Dreams,,Roxbury,3033 Washington St,MA,2119
226,1566,Dental Dreams,Male,Roxbury,3033 Washington St,MA,2119
227,1567,Dental Dreams,Female,Roxbury,3033 Washington St,MA,2119
228,1568,Dental Dreams,Male,Roxbury,3033 Washington St,MA,2119
229,1581,Dep,,East Boston,145 Havre St,MA,2128
230,1589,Designerz Cutz,,Dorchester,189 Bowdoin St,MA,2122
231,1593,Destin Decourcey Construction,,Roxbury,26 Waverly St,MA,2119
232,1612,Dimock Center,Female,Roxbury,55 Dimock St,MA,2119
233,1613,Dimock Center,Female,Roxbury,55 Dimock St,MA,2119
234,1614,Dimock Center,Male,Roxbury,55 Dimock St,MA,2119
235,1615,Dimock Center,Male,Roxbury,55 Dimock St,MA,2119
236,1616,Dimock Center,Female,Roxbury,55 Dimock St,MA,2119
237,1618,Dimock Center,Male,Roxbury,55 Dimock St,MA,2119
238,1619,Dimock Center,Male,Roxbury,55 Dimock St,MA,2119
239,1620,Dimock Center,Female,Roxbury,55 Dimock St,MA,2119
240,1621,Dimock Center,Female,Roxbury,55 Dimock St,MA,2119
241,1622,Dimock Center,Female,Roxbury,55 Dimock St,MA,2119
242,1623,Dimock Center,Female,Roxbury,55 Dimock St,MA,2119
243,1625,Dimock Center,Female,Roxbury,55 Dimock St,MA,2119
244,1626,Dimock Center,Male,Roxbury,55 Dimock St,MA,2119
245,1627,Dimock Center,Female,Roxbury,55 Dimock St,MA,2119
246,1628,Dimock Center,Female,Roxbury,55 Dimock St,MA,2119
247,1629,Dimock Center,Male,Roxbury,55 Dimock St,MA,2119
248,1630,Dimock Center,Male,Roxbury,55 Dimock St,MA,2119
249,1631,Dimock Center,Female,Roxbury,55 Dimock St,MA,2119
250,1632,Dimock Center,Female,Roxbury,55 Dimock St,MA,2119
251,1633,Dimock Center,Female,Roxbury,55 Dimock St,MA,2119
252,1634,Dimock Center,Female,Roxbury,55 Dimock St,MA,2119
253,1635,Dimock Center,Female,Roxbury,55 Dimock St,MA,2119
254,1640,Dimock Community Health Ctr,Female,Roxbury,55 Dimock St,MA,2119
255,1664,"Diruzzo, Jeremiah J Dc",Male,Mattapan,1520 Blue Hill Ave,MA,2126
256,1666,"Disciullo, Lan C",Female,Dorchester,398 Neponset Ave,MA,2122
257,1684,"Doherty, Leena Np",Female,Dorchester,398 Neponset Ave,MA,2122
258,1697,Done Wright Remodeling,,Roxbury,25 Perrin St,MA,2119
259,1715,Dorchester House Multi-Service,Male,Dorchester,1353 Dorchester Ave,MA,2122
260,1729,Dorchester House Multiservice,Male,Dorchester,1353 Dorchester Ave,MA,2122
261,1733,Dorchester House Multiservice,Female,Dorchester,1353 Dorchester Ave,MA,2122
262,1734,Dorchester House Multiservice,Female,Dorchester,1353 Dorchester Ave,MA,2122
263,1735,Dorchester House Multiservice,Female,Dorchester,1353 Dorchester Ave,MA,2122
264,1739,Dorchester House Multiservice,Female,Dorchester,1353 Dorchester Ave,MA,2122
265,1741,Dorchester House Multiservice,Female,Dorchester,1353 Dorchester Ave,MA,2122
266,1764,Dotwell,Male,Dorchester,1353 Dorchester Ave,MA,2122
267,1774,"Doyle, Kristin",Female,Roxbury,520 Dudley St,MA,2119
268,1778,Drain House Of Style,Male,Roxbury,2385 Washington St,MA,2119
269,1796,Dudley Public Library,Male,Roxbury,65 Warren St,MA,2119
270,1797,Dudley Square Cleaning & Jwlrs,,Roxbury,28 Warren St,MA,2119
271,1800,Dudley Street,,Dorchester,3 Monadnock St,MA,2125
272,1817,Dunkin' Donuts,,Dorchester,719 Gallivan Blvd,MA,2122
273,1818,Dunkin' Donuts,,East Boston,400 Terminal E,MA,2128
274,1823,"Dwyer Wilmer, Anne T MD",Female,East Boston,20 Maverick Sq # 2,MA,2128
275,1847,Earl Of Sandwich,,East Boston,500 Terminal E,MA,2128
276,1849,Eascare Ambulance Svc,Male,Dorchester,500 Neponset Ave,MA,2122
277,1851,East Boston Appl Repair Men,,East Boston,54 Orleans St # 5b431,MA,2128
278,1857,East Boston Dental Assoc,Female,East Boston,3 Meridian St,MA,2128
279,1859,East Boston Dental Ctr,Male,East Boston,12 Bennington St # 2,MA,2128
280,1868,East Boston Neighborhood Hlth,Female,East Boston,10 Gove St,MA,2128
281,1874,East Boston Neighborhood Hlth,Female,East Boston,10 Gove St,MA,2128
282,1880,East Boston Neighborhood Hlth,Female,East Boston,10 Gove St,MA,2128
283,1886,East Boston Neighborhood Hlth,Female,East Boston,10 Gove St,MA,2128
284,1900,East Boston Neighborhood-Er,Female,East Boston,10 Gove St,MA,2128
285,1901,East Boston Neighborhood-Er,Male,East Boston,10 Gove St,MA,2128
286,1902,East Boston Neighborhood-Er,Male,East Boston,10 Gove St,MA,2128
287,1905,East Boston Savings Bank,,Dorchester,501 Southampton,MA,2122
288,1921,Eastman Kodak Co,,Roxbury,45 School St,MA,2119
289,1932,Eblens Clothing & Footware,,Mattapan,8100 90 Riv S,MA,2126
290,1937,Eddie's Barbershop,Male,Dorchester,391 Neponset Ave,MA,2122
291,1940,Edward Blondell Co,,Dorchester,1146 Dorchester Ave,MA,2125
292,1970,El Mondonguito,Female,Roxbury,221 Dudley St,MA,2119
293,1979,Elaine's Bakery & Kitchen,,Dorchester,262 Normandy St,MA,2121
294,1993,Elihu Greenwood School,Female,Roxbury,2300 Washington St,MA,2119
295,1998,Eliot Educational Ctr,,Roxbury,56 Dale St,MA,2119
296,2008,Elliott Physical Therapy,Female,Dorchester,960 William T Morrissey Blvd,MA,2122
297,2023,Emely's Tire Shop-Auto Repair,,Mattapan,912 Morton St,MA,2126
298,2031,Emmerson Animal Hospital,Female,Dorchester,255 Freeport St,MA,2122
299,2038,Enterprise Holdings Inc,,East Boston,6 Tomahawk Dr,MA,2128
300,2053,Ernest Colpitts Welding Co,Male,Mattapan,177 Almont St,MA,2126
301,2068,Euphoria Home Health Care LLC,Female,Dorchester,825 Washington St,MA,2124
302,2076,Eversource Energy,Male,Dorchester,1165 Massachusetts Ave,MA,2125
303,2126,"Falvo, Lisa A Dpt",Female,Roxbury,70 Warren St # 8,MA,2119
304,2128,Family Affair Catering Inc,Male,Mattapan,81 Hazelton St,MA,2126
305,2131,Family Dental Care,Male,Dorchester,1444 Dorchester Ave # 2,MA,2122
306,2135,Family Dollar Store,Female,Dorchester,500 Geneva Ave,MA,2122
307,2142,Famous Footwear,Male,Dorchester,1102 Massachusetts Ave,MA,2125
308,2159,"Fasoli, Francis Agt",Male,Dorchester,320 Adams St,MA,2122
309,2165,"Feijo, Flavia",Female,Dorchester,415 Neponset Ave,MA,2122
310,2167,Fellowship Mission Church,,Roxbury,85 Centre St,MA,2119
311,2177,Feyi Enterprise,,Dorchester,661 Columbia Rd # 2,MA,2125
312,2242,"Folan, Michael DDS",Male,Dorchester,722 Adams St,MA,2122
313,2245,Follett Corp,,East Boston,1 Harborside Dr,MA,2128
314,2256,Forever 21,,Dorchester,8 Allstate Rd,MA,2125
315,2285,Franklin Park Devmnt Tenants,Female,Dorchester,246 Humboldt Ave,MA,2121
316,2298,Freeport Tavern,Male,Dorchester,780 William T Morrissey Blvd,MA,2122
317,2303,"Fridman, Vladimir MD",Male,Roxbury,59 Townsend St,MA,2119
318,2313,"Fryzel, Patricia Np",Female,East Boston,10 Gove St,MA,2128
319,2314,Fuddruckers,Female,East Boston,100 Terminal A # 19,MA,2128
320,2315,Fuddruckers,,East Boston,18 Logan Airport,MA,2128
321,2316,Fuddruckers Inc,,East Boston,300 Terminal E,MA,2128
322,2317,"Fugate, Amy L DDS",Female,Roxbury,801 Albany St,MA,2119
323,2322,"Fuller, Jon D MD",Male,Dorchester,150 William T Morrissey Blvd,MA,2125
324,2332,G & T Properties,Male,Dorchester,10 Roseclair St,MA,2125
325,2340,Gab Associates LLC,Male,Roxbury,15 Rockland St,MA,2119
326,2348,"Gallagher, Stacey Np",Female,Dorchester,398 Neponset Ave,MA,2122
327,2351,Gallery Elegance,Female,Dorchester,1848 Dorchester Ave,MA,2124
328,2354,"Gallo, Rebecca",Female,Dorchester,50 Redfield St # 302,MA,2122
329,2356,"Galvez-Buccoll, Juan MD",Male,Dorchester,35 Harbor Point Blvd,MA,2125
330,2365,"Garcia, Andrea P",Female,East Boston,14 Porter St,MA,2128
331,2376,Geekz N The Hood,,Roxbury,74 Warren St,MA,2119
332,2379,Geiger Gibson Community Health,Male,Dorchester,250 Mount Vernon St,MA,2125
333,2381,Geiger-Gibson Cmnty Health Ctr,Female,Dorchester,250 Mount Vernon St,MA,2125
334,2384,Geiger-Gibson Community Health,Male,Dorchester,250 Mount Vernon St,MA,2125
335,2391,General Dynamics Corp,,Roxbury,25 Chesterton St,MA,2119
336,2392,General Granite & Marble,Male,Dorchester,12 Lincoln St,MA,2122
337,2405,Georgette Jeanty MD,Female,Mattapan,1525 Blue Hill Ave,MA,2126
338,2418,"Gilby, Greg Dc",Male,Dorchester,653 Columbia Rd,MA,2125
339,2434,Global Leisure Dynamic Travel,Male,Roxbury,106 Winthrop St,MA,2119
340,2444,GMAC Mortgage,,Dorchester,109 Savin Hill Ave,MA,2125
341,2446,Goddard Entertainment,,Mattapan,78 Astoria St,MA,2126
342,2449,Golden Bowl,,East Boston,196 Border St,MA,2128
343,2452,"Golden, Jennifer Np",Female,Dorchester,398 Neponset Ave,MA,2122
344,2454,"Golman, Eric S Aty",Male,Dorchester,50 Redfield St # 201,MA,2122
345,2469,"Gosselin, Michelle S Aty",Female,Dorchester,50 Redfield St,MA,2122
346,2474,"Gracia, Natalie Np",Female,Mattapan,255 River St,MA,2126
347,2477,Grand Circle Travel,,Mattapan,63 Richmere Rd,MA,2126
348,2481,"Grassi, Hope Folan",Female,Mattapan,1575 Blue Hill Ave,MA,2126
349,2483,"Gray, Venus R Np",Female,Mattapan,1425 Blue Hill Ave,MA,2126
350,2493,Greater Boston Realty,,Dorchester,206 Minot St,MA,2122
351,2500,Greater Media Boston,Female,Dorchester,55 William T Morrissey Blvd,MA,2125
352,2531,Guilford Realty Co,,Roxbury,44 John Eliot Sq # 523,MA,2119
353,2548,H P General Contractor,Male,Dorchester,271 Hancock St,MA,2125
354,2551,H&R Block,,East Boston,46 Bennington St # 2,MA,2128
355,2555,Hafpoon Tap Room,,East Boston,100 Terminal E,MA,2128
356,2558,Hair By Sony,Male,Mattapan,11 Rexford St,MA,2126
357,2576,Hamilton True Value Hardware,Male,Dorchester,259 Bowdoin St,MA,2122
358,2577,"Hammond, Rose Np",Female,Dorchester,398 Neponset Ave,MA,2122
359,2582,Handy & Person Catering,Female,Dorchester,562 Columbia Rd # J,MA,2125
360,2598,Harbor Health Svc,Female,Dorchester,398 Neponset Ave,MA,2122
361,2599,Harbor Health Svc,Male,Dorchester,398 Neponset Ave,MA,2122
362,2601,Harbor Health Svc,Female,Dorchester,398 Neponset Ave,MA,2122
363,2602,Harbor Health Svc,Female,Dorchester,398 Neponset Ave,MA,2122
364,2603,Harbor Health Svc,Male,Dorchester,398 Neponset Ave,MA,2122
365,2605,Harbor Health Svc,Male,Dorchester,398 Neponset Ave,MA,2122
366,2607,Harbor Health Svc,Male,Dorchester,398 Neponset Ave,MA,2122
367,2608,Harbor Health Svc,Female,Dorchester,398 Neponset Ave,MA,2122
368,2617,Harbor Point Apartments,Male,Dorchester,100 Ocean View Dr,MA,2125
369,2623,Harbor Point Apartments,,Dorchester,35 Harbor Point Blvd,MA,2125
370,2624,Harbor Point Apartments,,Dorchester,40 Westwind Rd,MA,2125
371,2626,Harbor Point Apartments,,Dorchester,66 Beach Point Pl,MA,2125
372,2633,Harbor School,Female,Dorchester,11 Charles St,MA,2122
373,2636,Harbour Ponte Development,,Dorchester,11 Park St,MA,2122
374,2638,Harlow Movers,Male,Dorchester,45 Harlow St,MA,2125
375,2640,Harp Bard Restaurant,Male,Dorchester,1099 Dorchester Ave,MA,2125
376,2652,Harvard Street Neighborhood,Female,Dorchester,632 Blue Hill Ave,MA,2121
377,2653,Harvard Street Neighborhood,Male,Dorchester,632 Blue Hill Ave,MA,2121
378,2657,Harvard Street Neighborhood,,Dorchester,632 Blue Hill Ave,MA,2121
379,2658,Harvard Street Neighborhood,Male,Dorchester,632 Blue Hill Ave,MA,2121
380,2660,Harvard Street Neighborhood,Male,Dorchester,632 Blue Hill Ave,MA,2121
381,2666,Harvard Street Teen Clinic,Female,Dorchester,632 Blue Hill Ave,MA,2121
382,2669,Harvard Vanguard Medical Assoc,,Roxbury,275 Grove Saint Management Off,MA,2119
383,2672,Hawalie African Braiding,Female,Mattapan,964 Morton St,MA,2126
384,2673,Hawalie Hair Weaving,,Dorchester,45 Neponset Ave,MA,2122
385,2684,Heading Home,,Roxbury,46 Walnut Park,MA,2119
386,2689,Health & Sports Rehab,,Dorchester,576 Warren St,MA,2121
387,2708,Hendricks Remodeling,Male,Dorchester,63 Charles St,MA,2122
388,2730,Hertz,Male,East Boston,207 Porter St # A,MA,2128
389,2731,Hertz,Male,East Boston,450 William F Mcclellan Hwy,MA,2128
390,2733,"Hetherington, Julie Np",Female,Mattapan,1135 Morton St,MA,2126
391,2735,"Hezel, John-Paul D MD",Male,Dorchester,230 Bowdoin St,MA,2122
392,2754,"Hogan, Janine M Np",Female,East Boston,10 Gove St,MA,2128
393,2758,Holiday Inn-Boston Logan Arprt,Male,East Boston,225 William F Mcclellan Hwy,MA,2128
394,2780,"Hood, Mikeala Np",,Dorchester,398 Neponset Ave,MA,2122
395,2787,Horizons For Homeless Children,Female,Dorchester,90 Cushing Ave,MA,2125
396,2790,Horton Tile,Male,Mattapan,28 Ormond St,MA,2126
397,2811,"Hughes, Christopher DDS",Male,Roxbury,801 Albany St,MA,2119
398,2813,Humboldt Refrigeration,,Dorchester,209 Humboldt Ave,MA,2121
399,2817,Hurst Landscape & Site Svc,Male,Mattapan,24 Idaho St,MA,2126
400,2853,Imagenes Beauty Salon,Female,Dorchester,243 Bowdoin St,MA,2122
401,2859,Inaaipa Business Inc,,Mattapan,22 Arborcrest Ter,MA,2126
402,2879,Insurance Store,,Roxbury,26 Waverly St,MA,2119
403,2888,International Flight Svc Assn,,East Boston,61 Harborside Dr,MA,2128
404,2905,Isabella Original,Female,East Boston,262 Meridian St # 1,MA,2128
405,2907,Island Pride Function Hall,Male,Dorchester,986 Blue Hill Ave,MA,2124
406,2957,Jade Hair Salon,,Dorchester,190 Washington St,MA,2121
407,2968,Janet's Salon,,Dorchester,214 Washington St,MA,2121
408,2970,Japan Airlines,Male,East Boston,122 Harborside Dr # 62,MA,2128
409,2982,"Jeffers, Diane M Aty",Female,Dorchester,50 Redfield St,MA,2122
410,2989,"Jensen, June Aty",Female,Roxbury,2181 Washington St # 310,MA,2119
411,2994,Jerk,Male,Dorchester,310 Bowdoin St,MA,2122
412,2996,Jerusalem Trading Corp,,Dorchester,500 Geneva Ave,MA,2122
413,3002,Jeyzmine Resources,,Dorchester,1064 Dorchester Ave,MA,2125
414,3006,Jim's Auto Sales,,East Boston,466 Bennington St,MA,2128
415,3036,Johnny's Barber Shop,Male,Dorchester,742 Dudley St,MA,2125
416,3041,"Johnson, Jessica",Female,Roxbury,520 Dudley St,MA,2119
417,3052,"Jones, Melinda D Np",Female,East Boston,10 Gove St,MA,2128
418,3065,Jp Newbury Co,Male,Mattapan,73 Edgewater Dr,MA,2126
419,3071,Juba Market & Cafe LLC,,Roxbury,42 John Eliot Sq,MA,2119
420,3077,Just-In Boston Properties,Male,Dorchester,5 Savin Hill Ave,MA,2125
421,3079,K & A Auto Body,Male,Dorchester,18 Harvard Ave,MA,2121
422,3084,K Holder Inc,,Roxbury,100 Warren St,MA,2119
423,3096,"Kamel, Mohamad A DDS",Male,Roxbury,3033 Washington St,MA,2119
424,3097,"Kandru, Suneel C DDS",Male,Roxbury,1290 Tremont St,MA,2120
425,3102,Karen Renae Owens Consltng LLC,,Mattapan,48 Hazelton St,MA,2126
426,3160,Kmart,Male,Dorchester,7 Allstate Rd,MA,2125
427,3164,"Kombrink, Lavera P Rn",Female,East Boston,10 Gove St,MA,2128
428,3165,"Konecny, Brooke E",Female,East Boston,14 Porter St,MA,2128
429,3170,KOOL Smiles,,Roxbury,2181 Washington St # 101,MA,2119
430,3171,KOOL Smiles,,Roxbury,2181 Washington St # 101,MA,2119
431,3172,KOOL Smiles,,Roxbury,2181 Washington St # 101,MA,2119
432,3173,KOOL Smiles,Male,Roxbury,2181 Washington St # 101,MA,2119
433,3176,"Korostoff, Sarah",Female,Dorchester,105 Victory Rd,MA,2122
434,3177,"Koshy, Mekhala",,East Boston,530 Border St,MA,2128
435,3179,"Krache, Martha E Aty",Female,Dorchester,50 Redfield St,MA,2122
436,3180,"Kreider, Melissa E Np",Female,Dorchester,415 Columbia Rd,MA,2125
437,3185,"Kusner, Jennifer DDS",Female,Mattapan,1575 Blue Hill Ave,MA,2126
438,3223,Lacarivena Market,,Dorchester,181 Washington St,MA,2121
439,3240,"Lara, Jesenia M",Female,Dorchester,50 Redfield St,MA,2122
440,3247,Latham & Watkins LLP,,Mattapan,200 Colorado St,MA,2126
441,3264,"Lawson, R",,Roxbury,,MA,2119
442,3275,Lee & Lee,Female,Dorchester,383 Neponset Ave,MA,2122
443,3281,"Lee, Heather",Female,Dorchester,30 Beach St # 2,MA,2122
444,3282,"Lee, Hyuna Dmd",Female,Dorchester,653 Columbia Rd,MA,2125
445,3286,"Lee, Yun-Young Dmd",Male,Roxbury,1290 Tremont St,MA,2120
446,3357,Living Care Retirement Comm,,Dorchester,317 Blue Hill Ave,MA,2121
447,3368,"Loduca, Maria",Female,East Boston,168 Chelsea St,MA,2128
448,3384,Lombardi Florist & Nurserymen,,Roxbury,26 Waverly St,MA,2119
449,3408,Loughcrew Plastering,Male,Dorchester,27 Chelmsford St,MA,2122
450,3424,Luck Strike Lanes,Male,Dorchester,289 Adams St,MA,2122
451,3432,"Lui, Doris W DDS",Female,Dorchester,1428 Dorchester Ave,MA,2122
452,3444,"Luu, Huu-Duc D DDS",,Roxbury,2181 Washington St # 101,MA,2119
453,3448,"Lynch, Virginia M Np",Female,Dorchester,100 William T Morrissey Blvd,MA,2125
454,3451,"Lyons, John DDS",Male,East Boston,12 Bennington St # 2,MA,2128
455,3456,M A Peacard Co,,Dorchester,1250 Massachusetts Ave,MA,2125
456,3475,Maasbesa,,Dorchester,543 Columbia Rd,MA,2125
457,3478,Mac-Kenzie Udoji Insurance Inc,Male,Dorchester,771 Adams St,MA,2122
458,3501,"Magno, Andrea MD",Female,Dorchester,90 Cushing Ave,MA,2125
459,3519,Maniq,,Dorchester,11 Granite Ave,MA,2124
460,3520,"Mann, Devin M MD",Male,East Boston,10 Gove St,MA,2128
461,3528,Marchon Eyewear/Vsp Global,,Dorchester,1276 Massachusetts Ave,MA,2125
462,3534,"Margiloff, Linda R MD",Female,Roxbury,59 Townsend St,MA,2119
463,3551,Marpac Automotive Inc,Male,Dorchester,64 Pleasant St,MA,2125
464,3554,Marshalls,Female,East Boston,200 Terminal E,MA,2128
465,3564,Mary E Mahoney Dialysis Ctr,Male,Roxbury,416 Warren St # 1,MA,2119
466,3565,Mary E Mahoney Dialysis Ctr,Male,Roxbury,416 Warren St # 1,MA,2119
467,3583,Massachusetts Car Shipping,,Dorchester,35 Norwood St,MA,2122
468,3594,"Massah, Wallace K Dc",Male,Roxbury,190 Dudley St,MA,2119
469,3597,Massport,,East Boston,,MA,2128
470,3599,Massport,,East Boston,Airport Facilities I Logan Int,MA,2128
471,3600,Massport,,East Boston,T Massachusetts Port Authority,MA,2128
472,3605,Master Hair Club Barber Shop,Female,Dorchester,482 Blue Hill Ave,MA,2121
473,3606,Master Mobiles Inc,Female,Roxbury,3102 Washington St,MA,2119
474,3609,Matam Home Decor,,Dorchester,22 Hancock St,MA,2125
475,3616,Mattapan Appliance Repair Men,Female,Mattapan,15 Bismarck St # A2915,MA,2126
476,3624,Mattapan Community Health Ctr,Female,Mattapan,1575 Blue Hill Ave,MA,2126
477,3625,Mattapan Community Health Ctr,Male,Mattapan,1575 Blue Hill Ave,MA,2126
478,3637,Mattapan Medical Assoc,Male,Mattapan,1537 Blue Hill Ave,MA,2126
479,3641,Mattapan Sq Family Dental,Male,Mattapan,1634 Blue Hill Ave,MA,2126
480,3655,"Mazzoca, Richard P Aty",Male,Dorchester,50 Redfield St,MA,2122
481,3660,Mc Donald's,,East Boston,500 Terminal E,MA,2128
482,3661,Mc Donald's,Male,Mattapan,1614 Blue Hill Ave,MA,2126
483,3662,Mc Donald's,,Roxbury,2326 Washington St,MA,2119
484,3664,"Mc Grath, Lucia Np",Female,Dorchester,398 Neponset Ave,MA,2122
485,3665,"Mc Kenna, Peri L Rn",Female,Dorchester,415 Columbia Rd,MA,2125
486,3680,"Mclaughlin III, Raymond V Np",Male,East Boston,10 Gove St,MA,2128
487,3685,Mechanic Technician Auto,,East Boston,101 Condor St,MA,2128
488,3701,Melting Pot,Female,Mattapan,1647 Blue Hill Ave,MA,2126
489,3710,"Mendez, Zuzana DDS",Female,Dorchester,636 Columbia Rd,MA,2125
490,3711,"Mendonca, Alexandra Np",Female,East Boston,10 Gove St,MA,2128
491,3715,Meredith Consulting Inc,Female,Dorchester,36 Ashland St,MA,2122
492,3719,Meridian Family Dental,Male,East Boston,55 Meridian St,MA,2128
493,3720,Meridian Family Dental,Male,East Boston,55 Meridian St,MA,2128
494,3722,Meridian Interstate Bancorp,,East Boston,101 Meridian St,MA,2128
495,3725,"Merin, Sarah L",Female,Dorchester,500 Columbia Rd # 415-05,MA,2125
496,3733,Metro Boston Alive,Male,Roxbury,116 Roxbury St,MA,2119
497,3738,Metro Pcs,Male,Dorchester,421 Bowdoin St,MA,2122
498,3742,Metropolitan Dental Ctr,Female,Dorchester,1417 Dorchester Ave,MA,2122
499,3747,Mi Casa TU Casa Restaurant,Female,Dorchester,299 Hancock St,MA,2125
500,3754,Michael Kors,,East Boston,1 Harborside Dr,MA,2128
501,3763,Midland Construction,,Dorchester,2 King St,MA,2122
502,3780,Mills Linnell,,Dorchester,136 Tonawanda St,MA,2124
503,3781,Millys Cafe,,Dorchester,432 Geneva Ave,MA,2122
504,3789,Minot Asbestos Removal,Male,Dorchester,14 Minot St,MA,2122
505,3801,Mj Electrician Svc,,Dorchester,35 Juliette St,MA,2122
506,3817,"Molrine, Deborah C MD",Female,Mattapan,460 Walk Hill St,MA,2126
507,3822,Monro Muffler Brake & Svc,Male,Dorchester,1271 Dorchester Ave,MA,2122
508,3824,Monteiro Cleaning,Male,Dorchester,394 Bowdoin St,MA,2122
509,3827,"Montoya, Jessica",Female,Dorchester,1100 Washington St # 206,MA,2124
510,3831,"Moran, Bridget",Female,Dorchester,1353 Dorchester Ave # 4c,MA,2122
511,3839,"Morrissey, Christine Np",Female,Dorchester,398 Neponset Ave,MA,2122
512,3845,"Mosley, Leslie Np",Female,Dorchester,500 Columbia Rd,MA,2125
513,3857,Mr Bucks Moving,Male,Roxbury,35 Dale St,MA,2119
514,3859,Mrt Autobody & Repair,,Dorchester,270 Talbot Ave,MA,2124
515,3886,"Murphy, Barbara Ann Np",Female,East Boston,10 Gove St,MA,2128
516,3902,"Nace, Robert N MD",Male,Roxbury,59 Townsend St,MA,2119
517,3910,"Naoum-Hefferna, Christine Np",Female,East Boston,10 Gove St,MA,2128
518,3921,National Wholesale Liquidators,Male,Dorchester,725 William T Morrissey Blvd,MA,2122
519,3927,Ncp Management Co,,Dorchester,9 Dewar St,MA,2125
520,3930,"Neary, Susan E Np",Female,Dorchester,398 Neponset Ave,MA,2122
521,3935,"Nelson, Margaret R Np",Female,Dorchester,230 Bowdoin St,MA,2122
522,3936,Nene Autobody & Repair,,Dorchester,4 Milton Ave,MA,2124
523,3942,Neponset Courier Svc,Female,Dorchester,39 Train St,MA,2122
524,3943,Neponset Dental,Male,Dorchester,97 Neponset Ave,MA,2122
525,3947,Neponset Health Ctr,Female,Dorchester,398 Neponset Ave,MA,2122
526,3958,Neponset Physical Therapy,,Dorchester,174 Neponset Ave,MA,2122
527,3959,Neponset WIC Program,Male,Dorchester,4 Minot St,MA,2122
528,3963,Nevarez Clothing,Male,Dorchester,729 Dudley St,MA,2125
529,3966,Neville's Bakery & Restaurant,Female,Dorchester,422 Geneva Ave,MA,2122
530,3970,New Beginnings Re-Entry Svc,Male,Mattapan,18 Rector Rd # 1,MA,2126
531,3987,New England Firearms Training,Female,Dorchester,1483 Dorchester Ave,MA,2122
532,3998,New Fellowship Baptist Church,Male,Dorchester,616 Blue Hill Ave,MA,2121
533,3999,New Fellowship Baptist Church,,Dorchester,618 Blue Hill Ave,MA,2121
534,4015,New Style,,Dorchester,323 Washington St,MA,2121
535,4023,New York Life Insurance Co,,Dorchester,59 Beechwood St,MA,2121
536,4030,Nex Graphix & Printing,,Roxbury,36 Warren St,MA,2119
537,4031,Next Gen Bicycle Co,,Dorchester,121 Boston St,MA,2125
538,4046,"Nichols, Louis",Male,Dorchester,88 Freeport St,MA,2122
539,4065,North American Airlines Inc,Male,East Boston,18 A Logan Airport,MA,2128
540,4067,North Quincy Plate Glass Div,Female,Dorchester,1377 Dorchester Ave,MA,2122
541,4071,North Suffolk Mental Health,Female,East Boston,14 Porter St,MA,2128
542,4072,North Suffolk Mental Health,Male,East Boston,14 Porter St,MA,2128
543,4073,North Suffolk Mental Health,Female,East Boston,14 Porter St,MA,2128
544,4109,"O'Leary, Timothy J",Male,Dorchester,,MA,2122
545,4114,Occasions To Celebrate,Female,Dorchester,2a Lorenzo St,MA,2122
546,4115,Occupational Health & Rehab,,East Boston,1 Harborside Dr,MA,2128
547,4122,OKCOMPUTERSERVICES.COM,,Dorchester,48 Saxton St,MA,2125
548,4126,Olde Bostonian Realty Inc,,Roxbury,PO Box 190443,MA,2119
549,4171,"Osgood, Rebecca M Np",Female,East Boston,10 Gove St,MA,2128
550,4177,"Osullivan, Mary T Np",Female,Dorchester,230 Bowdoin St,MA,2122
551,4178,Other Guys Moving LLC,Male,East Boston,45 Gladstone St # 1,MA,2128
552,4192,P J's Family Child Care,Female,Mattapan,28 Malta St,MA,2126
553,4194,P S Gourmet Coffee,Male,Dorchester,758 Adams St,MA,2122
554,4206,Pantson Design,Male,Dorchester,145 Neponset Ave # 2,MA,2122
555,4223,"Parziale, Nicholas MD",Male,Dorchester,41 Mallon Rd,MA,2121
556,4226,"Pastorello, Jean M Np",Female,Dorchester,398 Neponset Ave,MA,2122
557,4239,Payless Shoe Source,Male,Dorchester,512 Geneva Ave,MA,2122
558,4240,Payless Shoe Source,Female,Dorchester,786 Dudley St,MA,2125
559,4241,Payless Shoe Source,Female,Mattapan,1624 Blue Hill Ave,MA,2126
560,4242,Payless Shoe Source,Female,Roxbury,2189 Washington St,MA,2119
561,4257,Penske Truck Rental,,Dorchester,5 Allstate Rd,MA,2125
562,4258,Penske Truck Rental,,Roxbury,,MA,2119
563,4285,Philcomp Computer Svc,,Dorchester,1690a Dorchester Ave,MA,2122
564,4290,Phillips Old Colony Hse Rstrnt,Male,Dorchester,780 William T Morrissey Blvd,MA,2122
565,4307,"Piekarski, Rebecca MD",Female,Dorchester,1353 Dorchester Ave,MA,2122
566,4311,"Pierre, Marguerite",Female,Dorchester,415 Neponset Ave # 3,MA,2122
567,4312,"Pierre-Louis, Gardine",Female,Roxbury,520 Dudley St,MA,2119
568,4331,Pine Street Inn,,Dorchester,5 Dawes Ter,MA,2125
569,4342,Pisces Hair Place,Female,Dorchester,6 Hancock St # A,MA,2125
570,4369,Pls Check Cashing,Female,Roxbury,1965 Columbus Ave,MA,2119
571,4382,"Politano, Nora T Np",Female,Dorchester,415 Columbia Rd,MA,2125
572,4388,Pooped Pooch Playhouse,,Dorchester,168 Neponset Ave,MA,2122
573,4393,Port Authority Of Ny & Nj,,East Boston,1 Harborside Dr,MA,2128
574,4406,Portside Apartment Devlprs LLC,,East Boston,,MA,2128
575,4424,Present Truth,Male,Roxbury,492 Dudley St,MA,2119
576,4472,Quality Roofing Co,Male,Roxbury,1 Atherton Pl,MA,2119
577,4474,Quantum Physical Therapy,Female,Roxbury,2181 Washington St # 305,MA,2119
578,4483,Quincy Auto Glass Svc,Male,Dorchester,491 Quincy St,MA,2125
579,4488,Quiznos,Male,Roxbury,11 Melnea Cass Blvd,MA,2119
580,4489,Quiznos,,Roxbury,7 Melnea Cass Blvd,MA,2119
581,4493,R Fuller & Co,Male,Dorchester,75 W Cottage St,MA,2125
582,4494,R G Mearn Co Inc,Male,Roxbury,157 Hampden St,MA,2119
583,4500,"Raczkowski, Ruth A Np",Female,Mattapan,1135 Morton St,MA,2126
584,4503,Radioshack,Male,Dorchester,1524 Dorchester Ave,MA,2122
585,4504,Radioshack,Male,East Boston,192 Border St,MA,2128
586,4505,Radioshack,,Mattapan,110 River St,MA,2126
587,4506,Radioshack,Male,Mattapan,1615 Blue Hill Ave,MA,2126
588,4511,Raggae On The Grill,,Dorchester,143 Washington St,MA,2121
589,4521,"Ramback, Katherine R Np",Female,East Boston,10 Gove St,MA,2128
590,4524,Randolph Eye Assoc,,Mattapan,1587 Blue Hill Ave,MA,2126
591,4532,"Rasner, Jcamila DDS",,East Boston,38 Central Sq,MA,2128
592,4536,Re/Max,Female,Dorchester,1532 Dorchester Ave,MA,2122
593,4542,Real Truth Seventh-Day,Male,Roxbury,30 Kenilworth St,MA,2119
594,4565,Regina Etienne,Female,Dorchester,321 Blue Hill Ave,MA,2121
595,4592,"Rhodes, Elizabeth A Np",Female,Dorchester,230 Bowdoin St,MA,2122
596,4596,Rich Art Auto Body,Male,Roxbury,38 Norfolk Ave,MA,2119
597,4601,Richardi Automotive,Male,Dorchester,21 Victory Rd,MA,2122
598,4609,"Rideout, Melissa Phd",Female,Dorchester,100 William T Morrissey Blvd,MA,2125
599,4618,"Rimmer, Robert MD",Male,Dorchester,200 Bowdoin St,MA,2122
600,4628,Rita's Daycare,Female,Dorchester,137 Draper St,MA,2122
601,4629,Rite Aid,Female,Dorchester,920 Dorchester Ave,MA,2125
602,4637,"Rivera, Gil",Male,Dorchester,434 Warren St,MA,2121
603,4643,"Roahen, David Dmd",Male,Roxbury,376 Warren St,MA,2119
604,4645,Robert Sutton,Male,Dorchester,12 Magnolia Sq,MA,2125
605,4649,"Roberts, Caitlin C",Female,East Boston,10 Gove St,MA,2128
606,4653,Rochelle A Burgos Law Ofc,Female,Roxbury,2181 Washington St # 310,MA,2119
607,4662,Rodriguez Towing,Male,Roxbury,17 Robey St,MA,2119
608,4677,Rooter-Man,,Roxbury,,MA,2119
609,4695,Rotisserie,,Dorchester,651 Warren St,MA,2121
610,4699,Roxbury Appliance Repair Men,Female,Roxbury,225 Centre St # D4364,MA,2119
611,4701,Roxbury Center For The Arts,Female,Roxbury,184 Dudley St # 102,MA,2119
612,4702,Roxbury Comprehensive Health,Female,Roxbury,435 Warren St,MA,2119
613,4703,Roxbury Comprehensive Health,Female,Roxbury,435 Warren St,MA,2119
614,4704,Roxbury Comprehensive Health,Female,Roxbury,435 Warren St,MA,2119
615,4705,Roxbury Comprehensive Health,Female,Roxbury,435 Warren St,MA,2119
616,4719,Roxbury Smoke Shop,,Dorchester,59 Monadnock St,MA,2125
617,4725,Roxbury Youthworks,Female,Dorchester,57 Savin Hill Ave,MA,2125
618,4729,Roy's Diesel Truck Repair,,Roxbury,71 Proctor St,MA,2119
619,4735,Royal Tree Hair Care & Barber,Female,Dorchester,612b Blue Hill Ave,MA,2121
620,4748,Ryan Tax Payroll Svc,Male,Dorchester,60 Westglow St,MA,2122
621,4757,S A S Heating/Cooling,,Mattapan,30 Groveland St,MA,2126
622,4770,Saf-Lok Scaffolding Inc,Male,Dorchester,59 Enterprise St,MA,2125
623,4780,Saigon Cafe,,Dorchester,1478 Dorchester Ave,MA,2122
624,4787,"Salcedo De Dia, Jacqueline",Female,Roxbury,520 Dudley St,MA,2119
625,4807,San Carlos Restaurant,Male,Dorchester,14 Hancock St,MA,2125
626,4823,"Santos, Lanyeli",Female,Dorchester,434 Warren St,MA,2121
627,4847,Scents & Stuffs,Male,Roxbury,300 Martin Luther King Blvd,MA,2119
628,4850,School Street Condominium,,Roxbury,140 School St,MA,2119
629,4857,Scrubs USA Inc,Male,Dorchester,190 Bowdoin St,MA,2122
630,4869,"Seigal, Nancy B Np",Female,East Boston,10 Gove St,MA,2128
631,4878,Seo Noobie,,Roxbury,60 Dudley St,MA,2119
632,4882,Servisair,,East Boston,13 Logan Airport,MA,2128
633,4907,"Sherman, Rebekah",Female,Dorchester,398 Neponset Ave,MA,2122
634,4921,Silk Screen Printing,,Dorchester,50 Von Hillern St,MA,2125
635,4923,"Silva, Rochelle",Female,Dorchester,75 Christopher St,MA,2122
636,4925,"Simaitis, Benjamin",Male,Dorchester,1353 Dorchester Ave,MA,2122
637,4939,Small Smiles Dental Ctr,,Mattapan,90 River St # 6,MA,2126
638,4940,Small Smiles Dental Ctr,Male,Mattapan,90 River St # 6,MA,2126
639,4941,Small Smiles Dental Ctr,Male,Mattapan,90 River St # 6,MA,2126
640,4942,Small Smiles Dental Ctr,Female,Mattapan,90 River St # 6,MA,2126
641,4943,Small Smiles Of Mattapan,Male,Mattapan,90 River St # 6,MA,2126
642,4945,Small Smiles Of Mattapan,Male,Mattapan,90 River St # 6,MA,2126
643,4946,Small Smiles Of Mattapan,Male,Mattapan,90 River St # 6,MA,2126
644,4947,Small Smiles Of Mattapan,,Mattapan,90 River St # 6,MA,2126
645,4959,Smashing Designs,Male,Mattapan,699 Cummins Hwy,MA,2126
646,4962,"Smith, Kandis A DDS",Female,Roxbury,435 Warren St,MA,2119
647,4966,Snapchef,Male,Dorchester,420 Washington St,MA,2124
648,4978,"Solages, Anthony MD",Male,Roxbury,59 Townsend St,MA,2119
649,5002,South Bay Ctr,,Dorchester,8a Allstate Rd,MA,2125
650,5004,South Bay Mental Health,Female,Dorchester,415 Neponset Ave # 6,MA,2122
651,5006,South Boston Tattoo & Body,,Dorchester,98 Tenean St,MA,2122
652,5012,Sovereign Bank,,Dorchester,300 Seaver St,MA,2121
653,5013,Sovereign Bank,,Dorchester,42 Oldfields Rd,MA,2121
654,5014,Sovereign Bank,,Dorchester,585 Columbia Rd,MA,2125
655,5015,Sovereign Bank,,East Boston,2 Meridian St,MA,2128
656,5019,Spanish Church-God-Boston,Male,Dorchester,450 Quincy St,MA,2125
657,5033,"Spinelli, Linda Np",Female,Dorchester,398 Neponset Ave,MA,2122
658,5055,St Joseph Nursing & Rehab,Female,Dorchester,321 Centre St,MA,2122
659,5074,Stacks MANAGEMENT,,Roxbury,109 Blue Hill Ave,MA,2119
660,5084,Star Five Oil Corp Co,Male,Dorchester,303 Geneva Ave,MA,2121
661,5091,Star-Light Dry Cleaners,,Mattapan,75 River St,MA,2126
662,5095,Stars Advertising,Male,East Boston,135 Chelsea St,MA,2128
663,5111,Steward Health Care System LLC,,Dorchester,200 Bowdoin St,MA,2122
664,5123,Stop N Save,Male,Dorchester,310 Blue Hill Ave,MA,2121
665,5135,Stylez,,Dorchester,14 Hancock St,MA,2125
666,5167,Super Fry,,Roxbury,1041 Tremont St,MA,2120
667,5183,"Sweet, William J Np",Male,East Boston,10 Gove St,MA,2128
668,5192,T & T Custom Printed Shirts,,Dorchester,10 Centre Ave,MA,2124
669,5205,"Tabb, Vadra W Rn",Female,Dorchester,415 Columbia Rd,MA,2125
670,5214,"Tang, Xianli DDS",,Roxbury,2181 Washington St # 1011,MA,2119
671,5220,Taste Of Jamaica,,Dorchester,128 Harvard St,MA,2124
672,5229,Tech Driving School Inc,Female,Mattapan,1613 Blue Hill Ave # 305,MA,2126
673,5254,"Terry-David, Michelle",Female,Mattapan,249 River St,MA,2126
674,5264,Theodat Insurance Agency,Female,Dorchester,650 Washington St,MA,2124
675,5267,Third's Barber Shop,Male,Roxbury,716 Shawmut Ave,MA,2119
676,5276,Thompson Durkee Co,,Roxbury,404 Dudley St,MA,2119
677,5306,"Tobin, Jonathan E Aty",Male,Dorchester,50 Redfield St # 201,MA,2122
678,5341,Toys R Us,,Dorchester,14 Allstate Rd,MA,2125
679,5348,Trans World Airlines,,East Boston,Logan International Airport,MA,2128
680,5349,Trans World Airlines Inc,Male,East Boston,Harvor Side Dr,MA,2128
681,5368,Tribune Co,,Dorchester,75 William T Morrissey Blvd,MA,2125
682,5405,U-Haul,,Roxbury,15 Rusfield St,MA,2119
683,5406,U-Haul,Male,Roxbury,26 Waverly St,MA,2119
684,5407,U-Haul Co,,Dorchester,,MA,2122
685,5408,U-Haul Moving & Storage,,Roxbury,15 Rusfield St,MA,2119
686,5409,U-Haul Neighborhood Dealer,,Dorchester,205 Humboldt Ave,MA,2121
687,5410,U-Haul Neighborhood Dealer,,Mattapan,981 Morton St,MA,2126
688,5414,Umass Boston,,Dorchester,240 Mount Vernon St,MA,2125
689,5427,United Christian Church,,Mattapan,207 Delhi St,MA,2126
690,5428,United Christian Evangelistic,,Mattapan,1601 Blue Hill Ave,MA,2126
691,5430,United Garage Doors In Drchstr,,Dorchester,15 Bay St,MA,2125
692,5433,United Homes For Children,,Dorchester,540 Columbia Rd,MA,2125
693,5462,Upham's Corner Health Ctr,Female,Dorchester,500 Columbia Rd,MA,2125
694,5465,Upham's Corner Health Ctr Dntl,Female,Dorchester,636 Columbia Rd,MA,2125
695,5479,Uphams Corner Health Ctr,Female,Dorchester,415 Columbia Rd,MA,2125
696,5489,Uphams Elder Svc Plan,Male,Dorchester,1140 Dorchester Ave,MA,2125
697,5490,Uphams Elder Svc Plan,Female,Dorchester,1140 Dorchester Ave,MA,2125
698,5501,Urban Edge Housing Corp,Female,Roxbury,2010 Columbus Ave,MA,2119
699,5510,Us Airways,Male,East Boston,200 Terminal B # 4,MA,2128
700,5515,US Post Office,,Dorchester,201 Neponset Ave,MA,2122
701,5550,Venice Pizza,Female,Dorchester,39 Savin Hill Ave,MA,2125
702,5551,Venom Security & Protective,Male,Dorchester,27 Cameron St # 1,MA,2125
703,5556,Verizon Wireless,,East Boston,,MA,2128
704,5566,Victorians,,Roxbury,1951 Columbus Ave,MA,2119
705,5572,Video Cellular,,Dorchester,7 Washington St,MA,2121
706,5599,VIP Auto,Male,Mattapan,1339 Blue Hill Ave,MA,2126
707,5616,"Von Seggern, Christina M Rn",Female,Dorchester,100 William T Morrissey Blvd,MA,2125
708,5618,Vsr Enterprises LLC,,Dorchester,1675 Dorchester Ave,MA,2122
709,5631,Walden Book Co Inc,,East Boston,500 Terminal E,MA,2128
710,5632,Waldenbooks,Female,East Boston,18 Logan Airport # 300c,MA,2128
711,5633,Waldenbooks,,East Boston,300 Logan Airport,MA,2128
712,5634,Waldwin Concessions,,East Boston,200 Terminal B,MA,2128
713,5641,"Walsh, Elizabeth C Np",Female,Dorchester,250 Mount Vernon St,MA,2125
714,5642,"Walsh, Ellen Np",Female,East Boston,10 Gove St,MA,2128
715,5645,Wanda Store,,Dorchester,147 Washington St,MA,2121
716,5660,Washington Street Sewer Clnrs,,Dorchester,340 Washington St,MA,2121
717,5669,"Watts, Olive",Female,Roxbury,520 Dudley St,MA,2119
718,5670,Wave,,Mattapan,34 Topalian St,MA,2126
719,5675,Wayne's Lawn Sprinkler Inc,Male,Dorchester,12 Fayston St,MA,2121
720,5677,We Are Mobile Corp,Male,Roxbury,109 Blue Hill Ave,MA,2119
721,5679,Weaver Works,Male,Mattapan,15 Clearwater Dr,MA,2126
722,5684,"Weir, Theresa C Np",Female,Dorchester,230 Bowdoin St,MA,2122
723,5686,"Welch, Thomas",Male,Dorchester,23 Raven St,MA,2125
724,5688,Weld Management,Male,Roxbury,1 Highland St,MA,2119
725,5701,Westview Building Co,,Dorchester,29 Stanton St,MA,2124
726,5703,"White, Sarah W Np",Female,East Boston,10 Gove St,MA,2128
727,5704,Whitehorne Remodeling,,Mattapan,4 Lorna Rd,MA,2126
728,5715,Whittier Street Hc,Male,Roxbury,1290 Tremont St,MA,2120
729,5716,Whittier Street Hc,Male,Roxbury,1290 Tremont St,MA,2120
730,5720,Whittier Street Health Ctr,Male,Roxbury,1290 Tremont St,MA,2120
731,5725,Whitworth Dental Assoc,Female,Mattapan,542 River St,MA,2126
732,5733,"Wilcox, Kate Np",Female,Dorchester,398 Neponset Ave,MA,2122
733,5755,Wings & Tingz Caters,,Dorchester,310 Bowdoin St,MA,2122
734,5774,"Wright, Jenna",Female,Dorchester,398 Neponset Ave,MA,2122
735,5779,WYNN Floor Covering Inc,Male,Mattapan,536 River St,MA,2126
736,5787,Y B Enterprise Inc,Male,Dorchester,696 Blue Hill Ave,MA,2121
737,5790,"Yacoub, Georges MD",Male,Dorchester,200 Bowdoin St,MA,2122
738,5822,"Yu, Yang DDS",Female,Roxbury,2181 Washington St # 101,MA,2119
